CCSDS_OMM_VERS = 2.0
CREATION_DATE  = 
ORIGINATOR     = 

OBJECT_NAME    = ATLAS CENTAUR 2
OBJECT_ID      = 1963-047A
CENTER_NAME    = EARTH
REF_FRAME      = TEME
TIME_SYSTEM    = UTC
MEAN_ELEMENT_THEORY = SGP/SGP4

EPOCH          = 2026-03-20T10:24:03.220704
MEAN_MOTION    = 14.12105194
ECCENTRICITY   = .05474503
INCLINATION    = 30.3532
RA_OF_ASC_NODE = 135.5980
ARG_OF_PERICENTER = 174.9722
MEAN_ANOMALY   = 185.6667

EPHEMERIS_TYPE = 0
CLASSIFICATION_TYPE = U
NORAD_CAT_ID   = 694
ELEMENT_SET_NO = 999
REV_AT_EPOCH   = 13314
BSTAR          = .19396393E-3
MEAN_MOTION_DOT = .1694E-4
MEAN_MOTION_DDOT = 0

CCSDS_OMM_VERS = 2.0
CREATION_DATE  = 
ORIGINATOR     = 

OBJECT_NAME    = THOR AGENA D R/B
OBJECT_ID      = 1964-002A
CENTER_NAME    = EARTH
REF_FRAME      = TEME
TIME_SYSTEM    = UTC
MEAN_ELEMENT_THEORY = SGP/SGP4

EPOCH          = 2026-03-20T11:26:15.881280
MEAN_MOTION    = 14.34026008
ECCENTRICITY   = .0032202
INCLINATION    = 99.1220
RA_OF_ASC_NODE = 93.4019
ARG_OF_PERICENTER = 225.8659
MEAN_ANOMALY   = 133.9875

EPHEMERIS_TYPE = 0
CLASSIFICATION_TYPE = U
NORAD_CAT_ID   = 733
ELEMENT_SET_NO = 999
REV_AT_EPOCH   = 23984
BSTAR          = .76304628E-4
MEAN_MOTION_DOT = .165E-5
MEAN_MOTION_DDOT = 0

CCSDS_OMM_VERS = 2.0
CREATION_DATE  = 
ORIGINATOR     = 

OBJECT_NAME    = SL-3 R/B
OBJECT_ID      = 1964-053B
CENTER_NAME    = EARTH
REF_FRAME      = TEME
TIME_SYSTEM    = UTC
MEAN_ELEMENT_THEORY = SGP/SGP4

EPOCH          = 2026-03-20T00:36:37.107936
MEAN_MOTION    = 14.61375271
ECCENTRICITY   = .00801173
INCLINATION    = 65.0766
RA_OF_ASC_NODE = 300.9352
ARG_OF_PERICENTER = 288.9673
MEAN_ANOMALY   = 70.2757

EPHEMERIS_TYPE = 0
CLASSIFICATION_TYPE = U
NORAD_CAT_ID   = 877
ELEMENT_SET_NO = 999
REV_AT_EPOCH   = 26830
BSTAR          = .46774277E-4
MEAN_MOTION_DOT = .116E-5
MEAN_MOTION_DDOT = 0

CCSDS_OMM_VERS = 2.0
CREATION_DATE  = 
ORIGINATOR     = 

OBJECT_NAME    = SL-8 R/B
OBJECT_ID      = 1967-045B
CENTER_NAME    = EARTH
REF_FRAME      = TEME
TIME_SYSTEM    = UTC
MEAN_ELEMENT_THEORY = SGP/SGP4

EPOCH          = 2026-03-20T03:54:34.800192
MEAN_MOTION    = 14.45631057
ECCENTRICITY   = .00646194
INCLINATION    = 74.0128
RA_OF_ASC_NODE = 328.5318
ARG_OF_PERICENTER = 332.4226
MEAN_ANOMALY   = 27.3508

EPHEMERIS_TYPE = 0
CLASSIFICATION_TYPE = U
NORAD_CAT_ID   = 2802
ELEMENT_SET_NO = 999
REV_AT_EPOCH   = 9053
BSTAR          = .79078332E-4
MEAN_MOTION_DOT = .258E-5
MEAN_MOTION_DDOT = 0

CCSDS_OMM_VERS = 2.0
CREATION_DATE  = 
ORIGINATOR     = 

OBJECT_NAME    = SL-8 R/B
OBJECT_ID      = 1968-040B
CENTER_NAME    = EARTH
REF_FRAME      = TEME
TIME_SYSTEM    = UTC
MEAN_ELEMENT_THEORY = SGP/SGP4

EPOCH          = 2026-03-20T13:22:20.379648
MEAN_MOTION    = 15.03323921
ECCENTRICITY   = .00234741
INCLINATION    = 74.0295
RA_OF_ASC_NODE = 291.4870
ARG_OF_PERICENTER = 111.0996
MEAN_ANOMALY   = 249.2706

EPHEMERIS_TYPE = 0
CLASSIFICATION_TYPE = U
NORAD_CAT_ID   = 3230
ELEMENT_SET_NO = 999
REV_AT_EPOCH   = 9164
BSTAR          = .17499494E-3
MEAN_MOTION_DOT = .2346E-4
MEAN_MOTION_DDOT = 0

CCSDS_OMM_VERS = 2.0
CREATION_DATE  = 
ORIGINATOR     = 

OBJECT_NAME    = OAO 2
OBJECT_ID      = 1968-110A
CENTER_NAME    = EARTH
REF_FRAME      = TEME
TIME_SYSTEM    = UTC
MEAN_ELEMENT_THEORY = SGP/SGP4

EPOCH          = 2026-03-20T14:44:17.410560
MEAN_MOTION    = 14.47313823
ECCENTRICITY   = .00062174
INCLINATION    = 34.9924
RA_OF_ASC_NODE = 204.2276
ARG_OF_PERICENTER = 284.4764
MEAN_ANOMALY   = 75.5237

EPHEMERIS_TYPE = 0
CLASSIFICATION_TYPE = U
NORAD_CAT_ID   = 3597
ELEMENT_SET_NO = 999
REV_AT_EPOCH   = 2068
BSTAR          = .66474921E-4
MEAN_MOTION_DOT = .228E-5
MEAN_MOTION_DDOT = 0

CCSDS_OMM_VERS = 2.0
CREATION_DATE  = 
ORIGINATOR     = 

OBJECT_NAME    = ISIS 1
OBJECT_ID      = 1969-009A
CENTER_NAME    = EARTH
REF_FRAME      = TEME
TIME_SYSTEM    = UTC
MEAN_ELEMENT_THEORY = SGP/SGP4

EPOCH          = 2026-03-20T06:02:25.280736
MEAN_MOTION    = 11.30417072
ECCENTRICITY   = .17078773
INCLINATION    = 88.4523
RA_OF_ASC_NODE = 154.1565
ARG_OF_PERICENTER = 67.8562
MEAN_ANOMALY   = 309.4546

EPHEMERIS_TYPE = 0
CLASSIFICATION_TYPE = U
NORAD_CAT_ID   = 3669
ELEMENT_SET_NO = 999
REV_AT_EPOCH   = 34972
BSTAR          = .75381729E-4
MEAN_MOTION_DOT = .128E-5
MEAN_MOTION_DDOT = 0

CCSDS_OMM_VERS = 2.0
CREATION_DATE  = 
ORIGINATOR     = 

OBJECT_NAME    = SERT 2
OBJECT_ID      = 1970-009A
CENTER_NAME    = EARTH
REF_FRAME      = TEME
TIME_SYSTEM    = UTC
MEAN_ELEMENT_THEORY = SGP/SGP4

EPOCH          = 2026-03-20T14:52:21.450144
MEAN_MOTION    = 13.58730766
ECCENTRICITY   = .00054358
INCLINATION    = 99.2774
RA_OF_ASC_NODE = 22.1159
ARG_OF_PERICENTER = 129.7461
MEAN_ANOMALY   = 43.6675

EPHEMERIS_TYPE = 0
CLASSIFICATION_TYPE = U
NORAD_CAT_ID   = 4327
ELEMENT_SET_NO = 999
REV_AT_EPOCH   = 78137
BSTAR          = .55202613E-4
MEAN_MOTION_DOT = -.1E-7
MEAN_MOTION_DDOT = 0

CCSDS_OMM_VERS = 2.0
CREATION_DATE  = 
ORIGINATOR     = 

OBJECT_NAME    = SL-3 R/B
OBJECT_ID      = 1971-028B
CENTER_NAME    = EARTH
REF_FRAME      = TEME
TIME_SYSTEM    = UTC
MEAN_ELEMENT_THEORY = SGP/SGP4

EPOCH          = 2026-03-20T14:43:26.806080
MEAN_MOTION    = 15.62026781
ECCENTRICITY   = .0013619
INCLINATION    = 81.2377
RA_OF_ASC_NODE = 38.5276
ARG_OF_PERICENTER = 238.2131
MEAN_ANOMALY   = 121.7796

EPHEMERIS_TYPE = 0
CLASSIFICATION_TYPE = U
NORAD_CAT_ID   = 5118
ELEMENT_SET_NO = 999
REV_AT_EPOCH   = 99037
BSTAR          = .43903242E-3
MEAN_MOTION_DOT = .38638E-3
MEAN_MOTION_DDOT = 0

CCSDS_OMM_VERS = 2.0
CREATION_DATE  = 
ORIGINATOR     = 

OBJECT_NAME    = ASTEX 1
OBJECT_ID      = 1971-089A
CENTER_NAME    = EARTH
REF_FRAME      = TEME
TIME_SYSTEM    = UTC
MEAN_ELEMENT_THEORY = SGP/SGP4

EPOCH          = 2026-03-20T10:39:36.451296
MEAN_MOTION    = 14.50780397
ECCENTRICITY   = .00173376
INCLINATION    = 92.7105
RA_OF_ASC_NODE = 155.2364
ARG_OF_PERICENTER = 53.9828
MEAN_ANOMALY   = 306.2982

EPHEMERIS_TYPE = 0
CLASSIFICATION_TYPE = U
NORAD_CAT_ID   = 5560
ELEMENT_SET_NO = 999
REV_AT_EPOCH   = 86386
BSTAR          = .95225797E-4
MEAN_MOTION_DOT = .374E-5
MEAN_MOTION_DDOT = 0

CCSDS_OMM_VERS = 2.0
CREATION_DATE  = 
ORIGINATOR     = 

OBJECT_NAME    = SL-8 R/B
OBJECT_ID      = 1971-119B
CENTER_NAME    = EARTH
REF_FRAME      = TEME
TIME_SYSTEM    = UTC
MEAN_ELEMENT_THEORY = SGP/SGP4

EPOCH          = 2026-03-20T12:15:14.310720
MEAN_MOTION    = 14.38084324
ECCENTRICITY   = .05473651
INCLINATION    = 73.8870
RA_OF_ASC_NODE = 155.4906
ARG_OF_PERICENTER = 119.8423
MEAN_ANOMALY   = 245.8301

EPHEMERIS_TYPE = 0
CLASSIFICATION_TYPE = U
NORAD_CAT_ID   = 5730
ELEMENT_SET_NO = 999
REV_AT_EPOCH   = 65704
BSTAR          = .3887457E-3
MEAN_MOTION_DOT = .7429E-4
MEAN_MOTION_DDOT = 0

CCSDS_OMM_VERS = 2.0
CREATION_DATE  = 
ORIGINATOR     = 

OBJECT_NAME    = OAO 3 (COPERNICUS)
OBJECT_ID      = 1972-065A
CENTER_NAME    = EARTH
REF_FRAME      = TEME
TIME_SYSTEM    = UTC
MEAN_ELEMENT_THEORY = SGP/SGP4

EPOCH          = 2026-03-20T12:58:07.364064
MEAN_MOTION    = 14.60006483
ECCENTRICITY   = .00072839
INCLINATION    = 35.0046
RA_OF_ASC_NODE = 235.4936
ARG_OF_PERICENTER = 252.0125
MEAN_ANOMALY   = 165.1221

EPHEMERIS_TYPE = 0
CLASSIFICATION_TYPE = U
NORAD_CAT_ID   = 6153
ELEMENT_SET_NO = 999
REV_AT_EPOCH   = 84778
BSTAR          = .71804927E-4
MEAN_MOTION_DOT = .329E-5
MEAN_MOTION_DDOT = 0

