ATLAS CENTAUR 2         
1 00694U 63047A   26079.43337061  .00001694  00000+0  19396-3 0  9990
2 00694  30.3532 135.5980 0547450 174.9722 185.6667 14.12105194133144
THOR AGENA D R/B        
1 00733U 64002A   26079.47657270  .00000165  00000+0  76305-4 0  9993
2 00733  99.1220  93.4019 0032202 225.8659 133.9875 14.34026008239840
SL-3 R/B                
1 00877U 64053B   26079.02542949  .00000116  00000+0  46774-4 0  9998
2 00877  65.0766 300.9352 0080117 288.9673  70.2757 14.61375271268300
SL-8 R/B                
1 02802U 67045B   26079.16290278  .00000258  00000+0  79078-4 0  9992
2 02802  74.0128 328.5318 0064619 332.4226  27.3508 14.45631057 90532
SL-8 R/B                
1 03230U 68040B   26079.55718032  .00002346  00000+0  17499-3 0  9998
2 03230  74.0295 291.4870 0023474 111.0996 249.2706 15.03323921 91644
OAO 2                   
1 03597U 68110A   26079.61409040  .00000228  00000+0  66475-4 0  9991
2 03597  34.9924 204.2276 0006217 284.4764  75.5237 14.47313823 20682
ISIS 1                  
1 03669U 69009A   26079.25168149  .00000128  00000+0  75382-4 0  9997
2 03669  88.4523 154.1565 1707877  67.8562 309.4546 11.30417072349726
SERT 2                  
1 04327U 70009A   26079.61969271 -.00000001  00000+0  55203-4 0  9997
2 04327  99.2774  22.1159 0005435 129.7461  43.6675 13.58730766781376
SL-3 R/B                
1 05118U 71028B   26079.61350470  .00038638  00000+0  43903-3 0  9992
2 05118  81.2377  38.5276 0013619 238.2131 121.7796 15.62026781990375
ASTEX 1                 
1 05560U 71089A   26079.44417189  .00000374  00000+0  95226-4 0  9994
2 05560  92.7105 155.2364 0017337  53.9828 306.2982 14.50780397863869
SL-8 R/B                
1 05730U 71119B   26079.51058230  .00007429  00000+0  38875-3 0  9997
2 05730  73.8870 155.4906 0547365 119.8423 245.8301 14.38084324657040
OAO 3 (COPERNICUS)      
1 06153U 72065A   26079.54036301  .00000329  00000+0  71805-4 0  9999
2 06153  35.0046 235.4936 0007283 252.0125 165.1221 14.60006483847788
